[
    {
        "Altitude(m)": 607910.9995699205,
        "Argument of Periapsis(deg)": 0.0,
        "Eccentricity": 0.0,
        "Inclination(deg)": 60.0,
        "Latitude(deg)": -14.292890845109843,
        "Longitude(deg)": 163.44262746122277,
        "Mean Anomaly(deg)": 196.36359999999996,
        "RAAN(deg)": 75.0,
        "Satellite Name": "Test1 342",
        "Satellite Number": 342,
        "Semi-Major Axis(m)": 6980739.136638005,
        "Time(s)": 0
    },
    {
        "Altitude(m)": 608060.2329156131,
        "Argument of Periapsis(deg)": 0.00010418945913296404,
        "Eccentricity": 0.0,
        "Inclination(deg)": 60.0,
        "Latitude(deg)": -14.826552651839148,
        "Longitude(deg)": 163.73123604838048,
        "Mean Anomaly(deg)": 196.98370614546184,
        "RAAN(deg)": 74.99957995086027,
        "Satellite Name": "Test1 342",
        "Satellite Number": 342,
        "Semi-Major Axis(m)": 6980739.136638005,
        "Time(s)": 10
    }
]